{
    "links": {
        "self": "http://www.neowsapp.com/rest/v1/neo/3598975?api_key=iIulBulltgU6a56xZRHN4H3l9WmuAYTsLGpBGhQ2"
    },
    "id": "3598975",
    "neo_reference_id": "3598975",
    "name": "(2012 CD18)",
    "designation": "2012 CD18",
    "nasa_jpl_url": "http://ssd.jpl.nasa.gov/sbdb.cgi?sstr=3598975",
    "absolute_magnitude_h": 24.3,
    "estimated_diameter": {
        "kilometers": {
            "estimated_diameter_min": 0.0366906138,
            "estimated_diameter_max": 0.0820427065
        },
        "meters": {
            "estimated_diameter_min": 36.6906137531,
            "estimated_diameter_max": 82.0427064882
        },
        "miles": {
            "estimated_diameter_min": 0.0227984834,
            "estimated_diameter_max": 0.0509789586
        },
        "feet": {
            "estimated_diameter_min": 120.3760332259,
            "estimated_diameter_max": 269.1689931548
        }
    },
    "is_potentially_hazardous_asteroid": false,
    "close_approach_data": [
        {
            "close_approach_date": "2012-02-11",
            "close_approach_date_full": "2012-Feb-11 06:07",
            "epoch_date_close_approach": 1328940420000,
            "relative_velocity": {
                "kilometers_per_second": "11.3776328773",
                "kilometers_per_hour": "40959.4783584208",
                "miles_per_hour": "25450.6269833198"
            },
            "miss_distance": {
                "astronomical": "0.0433362953",
                "lunar": "16.8578188717",
                "kilometers": "6483017.470571011",
                "miles": "4028360.2586655118"
            },
            "orbiting_body": "Earth"
        }
    ],
    "orbital_data": {
        "orbit_id": "6",
        "orbit_determination_date": "2017-04-06 08:51:01",
        "first_observation_date": "2012-02-11",
        "last_observation_date": "2012-02-22",
        "data_arc_in_days": 11,
        "observations_used": 37,
        "orbit_uncertainty": "8",
        "minimum_orbit_intersection": ".0433157",
        "jupiter_tisserand_invariant": "3.638",
        "epoch_osculation": "2455971.5",
        "eccentricity": ".4862155314279927",
        "semi_major_axis": "1.999046289256903",
        "inclination": "17.12306494970959",
        "ascending_node_longitude": "140.2390992446159",
        "orbital_period": "1032.363646100075",
        "perihelion_distance": "1.027078935376701",
        "perihelion_argument": "8.306477466962932",
        "aphelion_distance": "2.971013643137105",
        "perihelion_time": "2455974.695015656501",
        "mean_anomaly": "358.8858522472334",
        "mean_motion": ".3487143327450163",
        "equinox": "J2000",
        "orbit_class": {
            "orbit_class_type": "AMO",
            "orbit_class_description": "Near-Earth asteroid orbits similar to that of 1221 Amor",
            "orbit_class_range": "1.017 AU < q (perihelion) < 1.3 AU"
        }
    },
    "is_sentry_object": false
}